NORAD_CAT_ID,OBJECT_NAME,OBJECT_TYPE,EPOCH,MEAN_MOTION,ECCENTRICITY,INCLINATION,RA_OF_ASC_NODE,ARG_OF_PERICENTER,MEAN_ANOMALY,BSTAR,MEAN_MOTION_DOT,MEAN_MOTION_DDOT,TLE_LINE0,TLE_LINE1,TLE_LINE2,SEMIMAJOR_AXIS,PERIOD,APOGEE,PERIGEE,DECAYED
49413.0,STARLINK-3157,PAYLOAD,2021-12-21 14:00:01,15.73165863,0.0001793,53.2195,304.6486,29.2279,291.9751,-0.00042889,-0.00060298,0.0,0 STARLINK-3157,1 49413U 21104F   21355.58334491 -.00060298  00000-0 -42889-3 0  9993,2 49413  53.2195 304.6486 0001793  29.2279 291.9751 15.73165863  7286,6727.993,91.535,351.064,348.651,0.0
49413.0,STARLINK-3157,PAYLOAD,2021-12-21 22:00:00,15.73116632,0.0001827,53.2195,302.9992,37.2147,12.8322,0.00016437,0.00022428,0.0,0 STARLINK-3157,1 49413U 21104F   21355.91667824  .00022428  00000-0  16437-3 0  9990,2 49413  53.2195 302.9992 0001827  37.2147  12.8322 15.73116632  3695,6728.1330000000025,91.538,351.227,348.769,0.0
49413.0,STARLINK-3157,PAYLOAD,2021-12-22 06:00:00,15.73108659,0.0002032,53.2191,301.3520000000001,33.419000000000004,105.4681,0.00063509,0.00089114,0.0,0 STARLINK-3157,1 49413U 21104F   21356.25001157  .00089114  00000-0  63509-3 0  9996,2 49413  53.2191 301.3520 0002032  33.4190 105.4681 15.73108659  7383,6728.156,91.538,351.38800000000015,348.653,0.0
49413.0,STARLINK-3157,PAYLOAD,2021-12-22 14:00:01,15.73171736,0.0001861,53.219,299.7012,36.6834,191.0563,0.00023098,0.00031881,0.0,0 STARLINK-3157,1 49413U 21104F   21356.58334491  .00031881  00000-0  23098-3 0  9999,2 49413  53.2190 299.7012 0001861  36.6834 191.0563 15.73171736  3682,6727.976,91.535,351.093,348.589,0.0
49413.0,STARLINK-3157,PAYLOAD,2021-12-22 20:00:01,15.73186363,0.0001776,53.219,298.4635,41.3073,163.1057,0.00055178,0.00077492,0.0,0 STARLINK-3157,1 49413U 21104F   21356.83334491  .00077492  00000-0  55178-3 0  9999,2 49413  53.2190 298.4635 0001776  41.3073 163.1057 15.73186363  7484,6727.934,91.534,350.994,348.60400000000016,0.0
49413.0,STARLINK-3157,PAYLOAD,2021-12-22 22:00:00,15.73219116,0.0001812,53.2192,298.0517,40.455,276.184,0.00033533,0.00046743,0.0,0 STARLINK-3157,1 49413U 21104F   21356.91667824  .00046743  00000-0  33533-3 0  9993,2 49413  53.2192 298.0517 0001812  40.4550 276.1840 15.73219116  3677,6727.840999999999,91.532,350.925,348.487,0.0
49413.0,STARLINK-3157,PAYLOAD,2021-12-23 14:00:01,15.73251469,0.000166,53.219,294.753,29.7778,104.8201,-0.00037061,-0.00052426,0.0,0 STARLINK-3157,1 49413U 21104F   21357.58334491 -.00052426  00000-0 -37061-3 0  9995,2 49413  53.2190 294.7530 0001660  29.7778 104.8201 15.73251469  7596,6727.748000000001,91.53,350.73,348.497,0.0
49413.0,STARLINK-3157,PAYLOAD,2021-12-23 22:00:00,15.72930438,0.0001822,53.218,293.101,37.8021,185.7362,0.002612,0.00378589,0.0,0 STARLINK-3157,1 49413U 21104F   21357.91667824  .00378589  00000-0  26120-2 0  9993,2 49413  53.2180 293.1010 0001822  37.8021 185.7362 15.72930438  7654,6728.6640000000025,91.549,351.755,349.30300000000005,0.0
49413.0,STARLINK-3157,PAYLOAD,2021-12-24 14:00:01,15.73170313,0.0001589,53.2181,289.8051,36.9116,4.4462,0.00039375,0.00054932,0.0,0 STARLINK-3157,1 49413U 21104F   21358.58334491  .00054932  00000-0  39375-3 0  9998,2 49413  53.2181 289.8051 0001589  36.9116   4.4462 15.73170313  7755,6727.98,91.535,350.914,348.776,0.0
49413.0,STARLINK-3157,PAYLOAD,2021-12-24 22:00:00,15.73244053,0.0001607,53.2182,288.1559,38.5896,91.6746,-0.00013103,-0.00019004,0.0,0 STARLINK-3157,1 49413U 21104F   21358.91667824 -.00019004  00000-0 -13103-3 0  9998,2 49413  53.2182 288.1559 0001607  38.5896  91.6746 15.73244053  3689,6727.77,91.531,350.716,348.55300000000005,0.0
49413.0,STARLINK-3157,PAYLOAD,2021-12-25 14:00:01,15.7315777,0.0001646,53.2181,284.8567,38.5147,269.6701,0.0003585,0.00049902,0.0,0 STARLINK-3157,1 49413U 21104F   21359.58334491  .00049902  00000-0  35850-3 0  9994,2 49413  53.2181 284.8567 0001646  38.5147 269.6701 15.73157770  7919,6728.016,91.536,350.98800000000006,348.773,0.0
49413.0,STARLINK-3157,PAYLOAD,2021-12-25 22:00:00,15.73224424,0.0001664,53.2179,283.2074,38.3984,358.7543,-0.00017835,-0.00025602,0.0,0 STARLINK-3157,1 49413U 21104F   21359.91667824 -.00025602  00000-0 -17835-3 0  9996,2 49413  53.2179 283.2074 0001664  38.3984 358.7543 15.73224424  7969,6727.826,91.532,350.81,348.571,0.0
49413.0,STARLINK-3157,PAYLOAD,2021-12-26 06:00:02,15.73204053,0.0001823,53.2173,281.5596,36.1326,90.0501,0.00065443,0.00092257,0.0,0 STARLINK-3157,1 49413U 21104F   21360.25002315  .00092257  00000-0  65443-3 0  9999,2 49413  53.2173 281.5596 0001823  36.1326  90.0501 15.73204053  8019,6727.884,91.533,350.975,348.522,0.0
49413.0,STARLINK-3157,PAYLOAD,2021-12-26 14:00:01,15.73259144,0.0001549,53.2173,279.908,38.7943,176.3046,-0.00050159,-0.00070606,0.0,0 STARLINK-3157,1 49413U 21104F   21360.58334491 -.00070606  00000-0 -50159-3 0  9992,2 49413  53.2173 279.9080 0001549  38.7943 176.3046 15.73259144  8075,6727.727,91.53,350.634,348.5490000000001,0.0
49413.0,STARLINK-3157,PAYLOAD,2021-12-26 22:00:00,15.73185129,0.0001634,53.2175,278.259,40.8616,263.1818,6.165900000000001e-06,2.44e-06,0.0,0 STARLINK-3157,1 49413U 21104F   21360.91667824  .00000244  00000-0  61659-5 0  9996,2 49413  53.2175 278.2590 0001634  40.8616 263.1818 15.73185129  3697,6727.938,91.534,350.902,348.70300000000015,0.0
49413.0,STARLINK-3157,PAYLOAD,2021-12-27 14:00:01,15.73144288,0.0001464,53.2175,274.9596,34.6288,87.2331,0.00057663,0.00080895,0.0,0 STARLINK-3157,1 49413U 21104F   21361.58334491  .00080895  00000-0  57663-3 0  9999,2 49413  53.2175 274.9596 0001464  34.6288  87.2331 15.73144288  8223,6728.054,91.536,350.904,348.934,0.0
49413.0,STARLINK-3157,PAYLOAD,2021-12-27 22:00:00,15.73206662,0.0001556,53.2175,273.311,35.8353,174.9053,3.3589e-05,4.097e-05,0.0,0 STARLINK-3157,1 49413U 21104F   21361.91667824  .00004097  00000-0  33589-4 0  9997,2 49413  53.2175 273.3110 0001556  35.8353 174.9053 15.73206662  3681,6727.876,91.533,350.788,348.694,0.0
49413.0,STARLINK-3157,PAYLOAD,2021-12-28 06:00:00,15.73222665,0.0001616,53.2169,271.6626,27.9363,271.7651,-6.0906e-05,-9.168e-05,0.0,0 STARLINK-3157,1 49413U 21104F   21362.25001157 -.00009168  00000-0 -60906-4 0  9995,2 49413  53.2169 271.6626 0001616  27.9363 271.7651 15.73222665  8335,6727.831,91.532,350.783,348.608,0.0
49413.0,STARLINK-3157,PAYLOAD,2021-12-28 14:00:01,15.73173973,0.0001322,53.2169,270.0109,32.0614,356.5886,0.00061812,0.00086934,0.0,0 STARLINK-3157,1 49413U 21104F   21362.58334491  .00086934  00000-0  61812-3 0  9991,2 49413  53.2169 270.0109 0001322  32.0614 356.5886 15.73173973  3710,6727.969,91.535,350.724,348.945,0.0
49413.0,STARLINK-3157,PAYLOAD,2021-12-28 22:00:00,15.73276972,0.0001471,53.2172,268.3624,34.1373,83.4479,-0.00091712,-0.00127817,0.0,0 STARLINK-3157,1 49413U 21104F   21362.91667824 -.00127817  00000-0 -91712-3 0  9997,2 49413  53.2172 268.3624 0001471  34.1373  83.4479 15.73276972  3689,6727.676,91.529,350.53,348.551,0.0
49413.0,STARLINK-3157,PAYLOAD,2021-12-29 06:00:02,15.73161937,0.0001561999999999,53.2172,266.7138,27.7214,178.9038,0.00027196,0.00037657,0.0,0 STARLINK-3157,1 49413U 21104F   21363.25002315  .00037657  00000-0  27196-3 0  9998,2 49413  53.2172 266.7138 0001562  27.7214 178.9038 15.73161937  8493,6728.004,91.535,350.92,348.8180000000001,0.0
49413.0,STARLINK-3157,PAYLOAD,2021-12-29 14:00:01,15.73151989,0.0001339,53.2174,265.0625,30.3014,265.2189,0.00066454,0.00093494,0.0,0 STARLINK-3157,1 49413U 21104F   21363.58335648  .00093494  00000-0  66454-3 0  9993,2 49413  53.2174 265.0625 0001339  30.3014 265.2189 15.73151989  3711,6728.031999999997,91.536,350.798,348.996,0.0
49413.0,STARLINK-3157,PAYLOAD,2021-12-29 21:53:51,15.73197817,0.0002076,53.2168,263.4357,19.2328,340.8769999999999,1.9408e-05,2.103e-05,0.0,0 STARLINK-3157,1 49413U 21104F   21363.91240018  .00002103  00000-0  19408-4 0  9991,2 49413  53.2168 263.4357 0002076  19.2328 340.8770 15.73197817  7508,6727.901,91.533,351.163,348.37,0.0
49413.0,STARLINK-3157,PAYLOAD,2021-12-29 22:00:00,15.73237248,0.0001411,53.2174,263.4143,27.0975,357.25,-0.00069774,-0.00097571,0.0,0 STARLINK-3157,1 49413U 21104F   21363.91667824 -.00097571  00000-0 -69774-3 0  9994,2 49413  53.2174 263.4143 0001411  27.0975 357.2500 15.73237248  8591,6727.7890000000025,91.531,350.603,348.705,0.0
49413.0,STARLINK-3157,PAYLOAD,2021-12-30 02:28:17,15.73211675,0.0001174,53.2177,262.4893,51.2011,308.9113,9.486e-05,0.0001272,0.0,0 STARLINK-3157,1 49413U 21104F   21364.10298144  .00012720  00000-0  94860-4 0  9997,2 49413  53.2177 262.4893 0001174  51.2011 308.9113 15.73211675  8624,6727.861999999999,91.533,350.517,348.93699999999984,0.0
49413.0,STARLINK-3157,PAYLOAD,2021-12-30 14:00:01,15.73166578,0.0001217,53.2168,260.1142,26.2774,175.9082,0.00058286,0.00081863,0.0,0 STARLINK-3157,1 49413U 21104F   21364.58334491  .00081863  00000-0  58286-3 0  9990,2 49413  53.2168 260.1142 0001217  26.2774 175.9082 15.73166578  3681,6727.99,91.535,350.6740000000001,349.037,0.0
49413.0,STARLINK-3157,PAYLOAD,2021-12-30 22:00:01,15.73262446,0.0001403,53.2171,258.4662,30.0305,261.1471,-0.00069227,-0.00096923,0.0,0 STARLINK-3157,1 49413U 21104F   21364.91668981 -.00096923  00000-0 -69227-3 0  9993,2 49413  53.2171 258.4662 0001403  30.0305 261.1471 15.73262446  8756,6727.717,91.53,350.526,348.63800000000015,0.0
49413.0,STARLINK-3157,PAYLOAD,2021-12-30 22:17:32,15.7320826,0.0001294,53.2176,258.4041,44.9944,315.1181,0.00014964,0.00020439,0.0,0 STARLINK-3157,1 49413U 21104F   21364.92885239  .00020439  00000-0  14964-3 0  9996,2 49413  53.2176 258.4041 0001294  44.9944 315.1181 15.73208260  7664,6727.871999999999,91.533,350.607,348.866,0.0
49413.0,STARLINK-3157,PAYLOAD,2021-12-31 12:00:00,15.73200569,0.0001491,53.2173,255.5788,37.6281,319.1366,5.171100000000002e-05,6.643e-05,0.0,0 STARLINK-3157,1 49413U 21104F   21365.50001157  .00006643  00000-0  51711-4 0  9993,2 49413  53.2173 255.5788 0001491  37.6281 319.1366 15.73200569  8843,6727.894,91.533,350.76199999999994,348.755,0.0
